GLOBALSTAR M084         
1 38040U 11080A   25028.22450745 -.00000097  00000+0  38612-4 0  9991
2 38040  52.0006 114.5697 0001023 113.3499 273.0499 12.62273798604998
GLOBALSTAR M080         
1 38041U 11080B   25028.78021647 -.00000102  00000+0  10819-4 0  9994
2 38041  52.0058 114.4407 0001111  97.0747  52.7559 12.62260612605188
GLOBALSTAR M082         
1 38042U 11080C   25028.36816797 -.00000075  00000+0  15830-3 0  9993
2 38042  52.0080  71.1224 0000473 186.1588 192.6606 12.62272577605846
GLOBALSTAR M092         
1 38043U 11080D   25028.77001352 -.00000108  00000+0 -25392-4 0  9995
2 38043  52.0076 160.2679 0001016 109.5226  56.2563 12.62272536604344
GLOBALSTAR M090         
1 38044U 11080E   25028.57883135 -.00000073  00000+0  16899-3 0  9992
2 38044  51.9890  64.4697 0000280 142.8223 353.1638 12.62266236605984
GLOBALSTAR M086         
1 38045U 11080F   25028.53213670 -.00000081  00000+0  12596-3 0  9999
2 38045  51.9904  65.1519 0000825  39.6366 124.5027 12.62266058605926
GLOBALSTAR M097         
1 39072U 13005A   25028.04764491 -.00000096  00000+0  41674-4 0  9993
2 39072  52.0072 341.0339 0000464  35.9909 324.0989 12.62269341553117
GLOBALSTAR M093         
1 39073U 13005B   25028.17894280 -.00000080  00000+0  13033-3 0  9998
2 39073  51.9835 334.1569 0000541  28.7534 331.3363 12.62272407553081
